HORYU-4                 
1 41340U 16012D   21206.56718966  .00000818  00000-0  54328-4 0  9994
2 41340  31.0050 283.8273 0013647 191.6037 168.4286 15.01940771298520
E-ST@R-II               
1 41459U 16025D   21206.89567735  .00001650  00000-0  84177-4 0  9991
2 41459  98.1465 345.4009 0158194 293.2093  65.2531 15.08249979288216
AAUSAT 4                
1 41460U 16025E   21207.17638580  .00003126  00000-0  14793-3 0  9998
2 41460  98.1474 349.7740 0144865 275.3138  83.1549 15.11402483288569
BEESAT-4                
1 41619U 16040W   21206.10776468  .00003263  00000-0  13063-3 0  9992
2 41619  97.2670 261.1427 0010315 188.5764 171.5300 15.25714096270754
CANX-7                  
1 41788U 16059F   21206.91121768  .00017850  00000-0  19577-2 0  9997
2 41788  98.2542 313.5409 0027574  81.5303 278.9072 14.87499047259587
RAVAN                   
1 41849U 16067B   21206.57715360  .00000476  00000-0  44288-4 0  9998
2 41849  97.9710 330.2374 0008623 354.5208   5.5918 14.99133396257009
CELTEE 1                
1 41850U 16067C   21206.77237844 -.00000123  00000-0 -52257-5 0  9995
2 41850  97.9602 326.8190 0008700 355.0653   5.0481 14.97499403256858
OPTICUBE 04             
1 41851U 16067D   21206.78447333 -.00000077  00000-0 -13644-5 0  9998
2 41851  97.9578 326.1921 0008723 355.2902   4.8235 14.97134800256828
AEROCUBE 8D             
1 41852U 16067E   21206.78759602  .00000279  00000-0  29377-4 0  9995
2 41852  97.9575 326.0761 0009340 354.5717   5.5402 14.97258984256801
AEROCUBE 8C             
1 41853U 16067F   21206.76159812  .00000487  00000-0  47334-4 0  9995
2 41853  97.9583 325.9123 0009827 359.5122   0.6087 14.97233587256791
PROMETHEUS 2-1          
1 41854U 16067G   21206.75554863  .00001399  00000-0  12450-3 0  9993
2 41854  97.9595 326.5489 0009820 358.6378   1.4815 14.97746316256824
PROMETHEUS 2-3          
1 41855U 16067H   21206.75252475  .00001488  00000-0  13198-3 0  9997
2 41855  97.9595 326.6010 0009919 358.6988   1.4206 14.97760812256823
INS-1B                  
1 41954U 17008G   21206.75471126  .00002842  00000-0  11192-3 0  9996
2 41954  97.3054 269.0212 0007529 325.9587  34.1168 15.26395808246852
BGUSAT                  
1 41999U 17008BD  21206.80880602  .00005099  00000-0  17623-3 0  9996
2 41999  97.3228 275.9532 0005992 329.1971  30.8917 15.30346844246575
DIDO-2                  
1 42000U 17008BE  21206.86344363  .00001750  00000-0  71844-4 0  9991
2 42000  97.3054 269.3240 0007641 348.6387  11.4677 15.25499665246245
PEASSS                  
1 42015U 17008BV  21206.62357421  .00002609  00000-0  10095-3 0  9994
2 42015  97.3096 271.6579 0005498 353.2814   6.8350 15.27074755246846
AL-FARABI 1             
1 42016U 17008BW  21206.63528906  .00003262  00000-0  12083-3 0  9999
2 42016  97.3146 273.5455 0005159 351.4571   8.6580 15.28347644247062
NAYIF-1 (EO-88)         
1 42017U 17008BX  21206.66711383  .00003306  00000-0  12220-3 0  9998
2 42017  97.3138 273.5838 0005217 350.4510   9.6630 15.28402320247099
UCLSAT                  
1 42765U 17036A   21207.10635494  .00002861  00000-0  11713-3 0  9998
2 42765  97.2465 255.4383 0012020  48.4512 311.7755 15.25039374227478
LITUANICASAT-2          
1 42768U 17036D   21206.88753240  .00005260  00000-0  20297-3 0  9998
2 42768  97.2539 256.1516 0014363  37.1905 323.0326 15.26619817227334
AALTO-1                 
1 42775U 17036L   21206.86164359  .00001715  00000-0  76093-4 0  9998
2 42775  97.2443 251.7290 0014662  45.2735 314.9693 15.22795735227043
URSA MAIOR              
1 42776U 17036M   21207.12011498  .00001907  00000-0  83605-4 0  9994
2 42776  97.2456 252.4668 0014401  43.9754 316.2627 15.23072183227107
COMPASS 2               
1 42777U 17036N   21206.87705957  .00003880  00000-0  15362-3 0  9992
2 42777  97.2523 256.2570 0012491  39.6133 320.6016 15.25943462227275
DIAMOND RED             
1 42783U 17036U   21207.12290133  .00002163  00000-0  91908-4 0  9997
2 42783  97.2467 254.2340 0012909  51.2657 308.9733 15.24019202227200
PEGASUS                 
1 42784U 17036V   21206.83469722  .00002600  00000-0  10805-3 0  9999
2 42784  97.2472 254.6788 0012665  50.6056 309.6302 15.24598843227205
DIAMOND GREEN           
1 42785U 17036W   21206.85857546  .00001668  00000-0  71545-4 0  9999
2 42785  97.2474 254.0289 0012820  52.6267 307.6136 15.24009157227238
DIAMOND BLUE            
1 42786U 17036X   21206.85729858  .00000920  00000-0  40761-4 0  9990
2 42786  97.2474 254.0210 0012743  53.0752 307.1651 15.24002488227238
NUDTSAT                 
1 42787U 17036Y   21206.92240559  .00002773  00000-0  10838-3 0  9994
2 42787  97.2521 257.2977 0012507  37.7741 322.4383 15.26616832227207
SUCHAI                  
1 42788U 17036Z   21206.87902340  .00003119  00000-0  12596-3 0  9990
2 42788  97.2484 255.7615 0012059  47.9941 312.2322 15.25424209227344
SKCUBE                  
1 42789U 17036AA  21206.84939836  .00002893  00000-0  11802-3 0  9995
2 42789  97.2477 255.4265 0011994  48.7906 311.4364 15.25144834227241
VZLUSAT-1               
1 42790U 17036AB  21206.58937699  .00003810  00000-0  14803-3 0  9997
2 42790  97.2509 256.9645 0011230  45.9389 314.2773 15.26596505227303
ROBUSTA-1B              
1 42792U 17036AD  21206.87779930  .00003117  00000-0  12604-3 0  9990
2 42792  97.2480 255.8486 0011584  48.8905 311.3331 15.25391553227282
CICERO 6                
1 42793U 17036AE  21206.57295825  .00001975  00000-0  83741-4 0  9995
2 42793  97.2456 254.2897 0011240  53.8322 306.3954 15.24214238227247
D-SAT                   
1 42794U 17036AF  21206.86516749  .00000835  00000-0  76271-4 0  9993
2 42794  97.4599 224.7139 0127081  97.5136 264.0542 14.91613987222782
CORVUS BC2              
1 42846U 17042X   21206.92021396  .00000510  00000-0  55025-4 0  9998
2 42846  97.4677  76.9629 0010045  19.1749 340.9847 14.92325902219572
CORVUS BC1              
1 42847U 17042Y   21206.88838891  .00000075  00000-0  12469-4 0  9991
2 42847  97.4681  77.1783 0009714  18.9093 341.2485 14.92425092219575
MIRATA                  
1 43015U 17073C   21206.77401433  .00001215  00000-0  97203-4 0  9995
2 43015  97.7003 109.6043 0249378 171.2180 189.3522 14.80831882198884
MAKERSAT 0              
1 43016U 17073D   21207.16621765  .00000807  00000-0  66723-4 0  9991
2 43016  97.7035 109.9902 0253294 172.3042 188.2176 14.80057861198899
AEROCUBE 7B (OCSD B)    
1 43042U 17071F   21206.79526106  .00008321  00000-0  15826-3 0  9995
2 43042  51.6348 240.2903 0003951  81.7237 278.4200 15.49138298204771
AEROCUBE 7C (OCSD C)    
1 43043U 17071G   21206.63128317  .00008824  00000-0  16868-3 0  9996
2 43043  51.6339 241.4439 0004116  85.5986 274.5473 15.48906437204716
CHEFSAT                 
1 43044U 17071H   21206.61560199  .00030698  00000-0  34497-3 0  9995
2 43044  51.6326 202.7699 0003217  82.5484 277.5876 15.62328555205235
ASGARDIA 1              
1 43049U 17071N   21206.63936329  .00008225  00000-0  15891-3 0  9992
2 43049  51.6360 240.8852 0002134  96.8408 263.2823 15.48701638204721
ISARA                   
1 43050U 17071P   21206.63404954  .00024727  00000-0  32027-3 0  9993
2 43050  51.6300 210.9076 0001602  74.2382 285.8787 15.58732441205124
PROPCUBE 2 (FAUNA)      
1 43052U 17071R   21206.45216365  .00008000  00000-0  14963-3 0  9997
2 43052  51.6345 238.1321 0002051  91.4703 268.6521 15.49683153204733
CORVUS BC3              
1 43118U 18004H   21207.01664227  .00001779  00000-0  75463-4 0  9993
2 43118  97.4018 279.0891 0011650  76.7822 283.4714 15.24367899196457
MICROMAS-2A             
1 43131U 18004W   21206.63995968  .00004232  00000-0  15907-3 0  9997
2 43131  97.4105 282.3249 0009896  73.1202 287.1122 15.27668723196597
SPACEBEE-4              
1 43139U 18004AE  21206.67014706  .00006365  00000-0  22135-3 0  9991
2 43139  97.4171 284.8754 0008983  72.4031 287.8190 15.30036697196735
SPACEBEE-3              
1 43140U 18004AF  21206.85967113  .00008511  00000-0  27841-3 0  9996
2 43140  97.4204 286.6776 0008264  68.7663 291.4461 15.31920777196856
SPACEBEE-2              
1 43141U 18004AG  21206.65599277  .00009029  00000-0  28925-3 0  9996
2 43141  97.4224 287.0928 0008133  68.3232 291.8875 15.32573784196852
SPACEBEE-1              
1 43142U 18004AH  21206.48369697  .00009237  00000-0  28864-3 0  9992
2 43142  97.4233 287.5467 0007943  67.9894 292.2191 15.33363239196852
CICERO 7                
1 43143U 18004AJ  21206.65360293  .00003991  00000-0  15098-3 0  9991
2 43143  97.4077 282.3648 0008373  81.7818 278.4371 15.27504098196614
GOMX-4B                 
1 43196U 18015E   21207.05104169  .00000914  00000-0  39395-4 0  9993
2 43196  97.4900 340.0725 0019685 122.0780 238.2373 15.25008028193398
GOMX-4A                 
1 43197U 18015F   21207.13527212  .00001904  00000-0  77579-4 0  9997
2 43197  97.4894 340.4445 0019881 122.9737  51.1971 15.25561504193437
AEROCUBE 12A            
1 43556U 18046C   21206.76079806  .00003030  00000-0  10833-3 0  9990
2 43556  51.6410 324.8239 0007184 303.6960  56.3336 15.32004777169154
AEROCUBE 12B            
1 43557U 18046D   21206.74063928  .00004024  00000-0  14265-3 0  9994
2 43557  51.6417 326.9015 0007380 301.6096  58.4165 15.31373861169079
SURFSAT                 
1 43614U 18070B   21206.75947645  .00006706  00000-0  15440-3 0  9998
2 43614  93.0361 321.9555 0012748 204.6545 155.4103 15.42555779160578
CP7 (DAVE)              
1 43615U 18070C   21206.78414388  .00006380  00000-0  14840-3 0  9996
2 43615  93.0364 321.9168 0012933 204.9390 155.1243 15.42249295160563
ELFIN-B                 
1 43616U 18070D   21206.79659526  .00010944  00000-0  22863-3 0  9998
2 43616  93.0317 322.1597 0012900 201.7557 158.3155 15.45408116160698
ELFIN-A                 
1 43617U 18070E   21206.74421905  .00011511  00000-0  23637-3 0  9993
2 43617  93.0366 323.0214 0012422 197.9944 162.0876 15.45916256160707
